[
    {
        "Altitude(m)": 569581.6415010189,
        "Argument of Periapsis(deg)": 0.026491964442854003,
        "Eccentricity": 0.0,
        "Inclination(deg)": 53.0,
        "Latitude(deg)": -47.44429536419568,
        "Longitude(deg)": -107.8972087398515,
        "Mean Anomaly(deg)": 293.0936714703103,
        "RAAN(deg)": 49.96057347411207,
        "Satellite Name": "Starlink Shell 1 235",
        "Satellite Number": 235,
        "Semi-Major Axis(m)": 6931778.249405717,
        "Time(s)": 760
    },
    {
        "Altitude(m)": 569463.2245283754,
        "Argument of Periapsis(deg)": 0.02684054292236524,
        "Eccentricity": 0.0,
        "Inclination(deg)": 53.0,
        "Latitude(deg)": -47.15275161503238,
        "Longitude(deg)": -107.12526349902866,
        "Mean Anomaly(deg)": 293.7205026738671,
        "RAAN(deg)": 49.96005470403459,
        "Satellite Name": "Starlink Shell 1 235",
        "Satellite Number": 235,
        "Semi-Major Axis(m)": 6931778.249405717,
        "Time(s)": 770
    },
    {
        "Altitude(m)": 569342.2724192982,
        "Argument of Periapsis(deg)": 0.027189121401876473,
        "Eccentricity": 0.0,
        "Inclination(deg)": 53.0,
        "Latitude(deg)": -46.855479938368994,
        "Longitude(deg)": -106.36223113292452,
        "Mean Anomaly(deg)": 294.34733387742375,
        "RAAN(deg)": 49.95953593395713,
        "Satellite Name": "Starlink Shell 1 235",
        "Satellite Number": 235,
        "Semi-Major Axis(m)": 6931778.249405717,
        "Time(s)": 780
    },
    {
        "Altitude(m)": 569218.8329995075,
        "Argument of Periapsis(deg)": 0.02753769988138771,
        "Eccentricity": 0.0,
        "Inclination(deg)": 53.0,
        "Latitude(deg)": -46.55260018827267,
        "Longitude(deg)": -105.60808938239138,
        "Mean Anomaly(deg)": 294.97416508098047,
        "RAAN(deg)": 49.95901716387965,
        "Satellite Name": "Starlink Shell 1 235",
        "Satellite Number": 235,
        "Semi-Major Axis(m)": 6931778.249405717,
        "Time(s)": 790
    },
    {
        "Altitude(m)": 569092.955052137,
        "Argument of Periapsis(deg)": 0.02788627836089895,
        "Eccentricity": 0.0,
        "Inclination(deg)": 53.0,
        "Latitude(deg)": -46.24423118521892,
        "Longitude(deg)": -104.86280743318403,
        "Mean Anomaly(deg)": 295.6009962845372,
        "RAAN(deg)": 49.958498393802174,
        "Satellite Name": "Starlink Shell 1 235",
        "Satellite Number": 235,
        "Semi-Major Axis(m)": 6931778.249405717,
        "Time(s)": 800
    },
    {
        "Altitude(m)": 568964.6882963666,
        "Argument of Periapsis(deg)": 0.02823485684041019,
        "Eccentricity": 0.0,
        "Inclination(deg)": 53.0,
        "Latitude(deg)": -45.930490604926135,
        "Longitude(deg)": -104.1263459514347,
        "Mean Anomaly(deg)": 296.2278274880939,
        "RAAN(deg)": 49.95797962372471,
        "Satellite Name": "Starlink Shell 1 235",
        "Satellite Number": 235,
        "Semi-Major Axis(m)": 6931778.249405717,
        "Time(s)": 810
    },
    {
        "Altitude(m)": 568834.0833656348,
        "Argument of Periapsis(deg)": 0.028583435319921423,
        "Eccentricity": 0.0,
        "Inclination(deg)": 53.0,
        "Latitude(deg)": -45.61149487712575,
        "Longitude(deg)": -103.39865711119607,
        "Mean Anomaly(deg)": 296.8546586916506,
        "RAAN(deg)": 49.957460853647234,
        "Satellite Name": "Starlink Shell 1 235",
        "Satellite Number": 235,
        "Semi-Major Axis(m)": 6931778.249405717,
        "Time(s)": 820
    },
    {
        "Altitude(m)": 568701.1917854465,
        "Argument of Periapsis(deg)": 0.028932013799432665,
        "Eccentricity": 0.0,
        "Inclination(deg)": 53.0,
        "Latitude(deg)": -45.28735909393652,
        "Longitude(deg)": -102.67968612487988,
        "Mean Anomaly(deg)": 297.48148989520735,
        "RAAN(deg)": 49.95694208356976,
        "Satellite Name": "Starlink Shell 1 235",
        "Satellite Number": 235,
        "Semi-Major Axis(m)": 6931778.249405717,
        "Time(s)": 830
    },
    {
        "Altitude(m)": 568566.065950749,
        "Argument of Periapsis(deg)": 0.029280592278943897,
        "Eccentricity": 0.0,
        "Inclination(deg)": 53.0,
        "Latitude(deg)": -44.95819692748618,
        "Longitude(deg)": -101.96937124905573,
        "Mean Anomaly(deg)": 298.108321098764,
        "RAAN(deg)": 49.956423313492294,
        "Satellite Name": "Starlink Shell 1 235",
        "Satellite Number": 235,
        "Semi-Major Axis(m)": 6931778.249405717,
        "Time(s)": 840
    },
    {
        "Altitude(m)": 568428.7591029487,
        "Argument of Periapsis(deg)": 0.029629170758455132,
        "Eccentricity": 0.0,
        "Inclination(deg)": 53.0,
        "Latitude(deg)": -44.62412055640072,
        "Longitude(deg)": -101.2676437769513,
        "Mean Anomaly(deg)": 298.7351523023207,
        "RAAN(deg)": 49.95590454341481,
        "Satellite Name": "Starlink Shell 1 235",
        "Satellite Number": 235,
        "Semi-Major Axis(m)": 6931778.249405717,
        "Time(s)": 850
    },
    {
        "Altitude(m)": 568289.3253065114,
        "Argument of Periapsis(deg)": 0.02997774923796637,
        "Eccentricity": 0.0,
        "Inclination(deg)": 53.0,
        "Latitude(deg)": -44.28524060076644,
        "Longitude(deg)": -100.57442969733563,
        "Mean Anomaly(deg)": 299.3619835058775,
        "RAAN(deg)": 49.95538577333734,
        "Satellite Name": "Starlink Shell 1 235",
        "Satellite Number": 235,
        "Semi-Major Axis(m)": 6931778.249405717,
        "Time(s)": 860
    },
    {
        "Altitude(m)": 568147.819425207,
        "Argument of Periapsis(deg)": 0.030326327717477602,
        "Eccentricity": 0.0,
        "Inclination(deg)": 53.0,
        "Latitude(deg)": -43.9416660651594,
        "Longitude(deg)": -99.88964881627517,
        "Mean Anomaly(deg)": 299.98881470943417,
        "RAAN(deg)": 49.954867003259864,
        "Satellite Name": "Starlink Shell 1 235",
        "Satellite Number": 235,
        "Semi-Major Axis(m)": 6931778.249405717,
        "Time(s)": 870
    },
    {
        "Altitude(m)": 568004.2970979633,
        "Argument of Periapsis(deg)": 0.030674906196988847,
        "Eccentricity": 0.0,
        "Inclination(deg)": 53.0,
        "Latitude(deg)": -43.593504289327356,
        "Longitude(deg)": -99.21321638382223,
        "Mean Anomaly(deg)": 300.61564591299094,
        "RAAN(deg)": 49.954348233182394,
        "Satellite Name": "Starlink Shell 1 235",
        "Satellite Number": 235,
        "Semi-Major Axis(m)": 6931778.249405717,
        "Time(s)": 880
    },
    {
        "Altitude(m)": 567858.8147143932,
        "Argument of Periapsis(deg)": 0.031023484676500086,
        "Eccentricity": 0.0,
        "Inclination(deg)": 53.0,
        "Latitude(deg)": -43.24086090610937,
        "Longitude(deg)": -98.54504302252755,
        "Mean Anomaly(deg)": 301.2424771165476,
        "RAAN(deg)": 49.953829463104924,
        "Satellite Name": "Starlink Shell 1 235",
        "Satellite Number": 235,
        "Semi-Major Axis(m)": 6931778.249405717,
        "Time(s)": 890
    },
    {
        "Altitude(m)": 567711.4293899586,
        "Argument of Periapsis(deg)": 0.03137206315601132,
        "Eccentricity": 0.0,
        "Inclination(deg)": 53.0,
        "Latitude(deg)": -42.88383980617582,
        "Longitude(deg)": -97.88503463825366,
        "Mean Anomaly(deg)": 301.8693083201044,
        "RAAN(deg)": 49.95331069302745,
        "Satellite Name": "Starlink Shell 1 235",
        "Satellite Number": 235,
        "Semi-Major Axis(m)": 6931778.249405717,
        "Time(s)": 900
    },
    {
        "Altitude(m)": 567562.1989407807,
        "Argument of Periapsis(deg)": 0.03172064163552255,
        "Eccentricity": 0.0,
        "Inclination(deg)": 53.0,
        "Latitude(deg)": -42.52254310917484,
        "Longitude(deg)": -97.23309382583028,
        "Mean Anomaly(deg)": 302.4961395236611,
        "RAAN(deg)": 49.95279192294998,
        "Satellite Name": "Starlink Shell 1 235",
        "Satellite Number": 235,
        "Semi-Major Axis(m)": 6931778.249405717,
        "Time(s)": 910
    },
    {
        "Altitude(m)": 567411.1818581672,
        "Argument of Periapsis(deg)": 0.0320692201150338,
        "Eccentricity": 0.0,
        "Inclination(deg)": 53.0,
        "Latitude(deg)": -42.15707114087852,
        "Longitude(deg)": -96.58911974360613,
        "Mean Anomaly(deg)": 303.12297072721776,
        "RAAN(deg)": 49.95227315287251,
        "Satellite Name": "Starlink Shell 1 235",
        "Satellite Number": 235,
        "Semi-Major Axis(m)": 6931778.249405717,
        "Time(s)": 920
    },
    {
        "Altitude(m)": 567258.4372827924,
        "Argument of Periapsis(deg)": 0.032417798594545036,
        "Eccentricity": 0.0,
        "Inclination(deg)": 53.0,
        "Latitude(deg)": -41.78752241592934,
        "Longitude(deg)": -95.95300796971328,
        "Mean Anomaly(deg)": 303.7498019307745,
        "RAAN(deg)": 49.95175438279503,
        "Satellite Name": "Starlink Shell 1 235",
        "Satellite Number": 235,
        "Semi-Major Axis(m)": 6931778.249405717,
        "Time(s)": 930
    },
    {
        "Altitude(m)": 567104.0249785755,
        "Argument of Periapsis(deg)": 0.03276637707405627,
        "Eccentricity": 0.0,
        "Inclination(deg)": 53.0,
        "Latitude(deg)": -41.41399362579502,
        "Longitude(deg)": -95.32465185297298,
        "Mean Anomaly(deg)": 304.3766331343312,
        "RAAN(deg)": 49.951235612717554,
        "Satellite Name": "Starlink Shell 1 235",
        "Satellite Number": 235,
        "Semi-Major Axis(m)": 6931778.249405717,
        "Time(s)": 940
    }
]